0 ONEWEB-0332
1 49279U 21090A   23318.98797018  .00001558  00000-0  41671-2 0  9999
2 49279  87.8945 117.8783 0000874  61.2231 298.8986 13.14515310103405
0 ONEWEB-0347
1 49280U 21090B   23318.67674086  .00000054  00000-0  10122-3 0  9994
2 49280  87.9225 102.6498 0001298  76.9517 283.1761 13.20771090106233
0 ONEWEB-0349
1 49281U 21090C   23318.48103397  .00000090  00000-0  18870-3 0  9994
2 49281  87.9173 102.7067 0001754 105.6453 254.4874 13.20772147104996
0 ONEWEB-0353
1 49282U 21090D   23318.98004132  .00000768  00000-0  20356-2 0  9990
2 49282  87.8946 117.8615 0001323  80.4341 279.6938 13.14507974104692
0 ONEWEB-0356
1 49283U 21090E   23318.85771685  .00000032  00000-0  46396-4 0  9999
2 49283  87.9162 102.6329 0002486  83.3702 276.7714 13.20772975105044
0 ONEWEB-0358
1 49284U 21090F   23318.81142612  .00000000  00000-0 -32562-4 0  9994
2 49284  87.9170 102.6215 0001907  99.9821 260.1528 13.20772075105760
0 ONEWEB-0359
1 49285U 21090G   23318.65779458  .00000110  00000-0  23915-3 0  9993
2 49285  87.9159 102.6803 0001734 112.9275 247.2041 13.20774053105728
0 ONEWEB-0360
1 49286U 21090H   23318.79880000 -.00000036  00000-0 -12090-3 0  9996
2 49286  87.9165 102.6523 0001544 102.3606 257.7700 13.20771943105054
